#cP2023  6 22  0  0  0.00000000      96 ORBIT IGS20 HLM  IGS
## 2267 345600.00000000   900.00000000 60117 0.0000000000000
+   32   G01G02G03G04G05G06G07G08G09G10G11G12G13G14G15G16G17
+        G18G19G20G21G22G23G24G25G26G27G28G29G30G31G32  0  0
+          0  0  0  0  0  0  0  0  0  0  0  0  0  0  0  0  0
+          0  0  0  0  0  0  0  0  0  0  0  0  0  0  0  0  0
+          0  0  0  0  0  0  0  0  0  0  0  0  0  0  0  0  0
++         2  2  3  2  2  2  2  2  2  2  2  2  2  2  2  2  2
++         2  2  2  2  2  3  2  2  2  2  2  2  2  2  1  0  0
++         0  0  0  0  0  0  0  0  0  0  0  0  0  0  0  0  0
++         0  0  0  0  0  0  0  0  0  0  0  0  0  0  0  0  0
++         0  0  0  0  0  0  0  0  0  0  0  0  0  0  0  0  0
%c G  cc GPS ccc cccc cccc cccc cccc ccccc ccccc ccccc ccccc
%c cc cc ccc ccc cccc cccc cccc cccc ccccc ccccc ccccc ccccc
%f  1.2500000  1.025000000  0.00000000000  0.000000000000000
%f  0.0000000  0.000000000  0.00000000000  0.000000000000000
%i    0    0    0    0      0      0      0      0         0
%i    0    0    0    0      0      0      0      0         0
/* RAPID ORBIT COMBINATION FROM WEIGHTED AVERAGE OF:        
/* cod emr esa gfz grg jpl ngs sio usn whu                  
/* REFERENCED TO IGS TIME (IGST) AND TO WEIGHTED MEAN POLE: 
/* PCV:IGS20_2233 OL/AL:FES2014b NONE     Y  ORB:CMB CLK:CMB
*  2023  6 22 10 30  0.00000000
PG01  14009.293023 -22182.460614  -2985.108916    176.881718  4     5  87       
PG02  16130.974142 -20558.355939   4781.871750   -583.410028  5  4  5  57       
PG03  10488.248328 -12979.326184 -20770.650750   -261.302062  5  7  8 106       
PG04   3166.853669 -21057.403875 -15789.643222     75.166595  5  5  5  84       
PG05 -24073.159018   5513.139012   9748.753574   -132.072573  4  2  7  63       
PG06 -13013.723324  -6798.199764 -22079.418839    583.598377  5  6  5 104       
PG07   1417.712655 -21391.346581  15824.941086    145.566471  4  1  5  76       
PG08  11277.909583 -10959.081156  21279.735504   -128.592221  6  4  5  83       
PG09  -5793.738608 -24710.120147  -7826.413353   -129.884099  4  3  4  74       
PG10  20024.430344  11222.993387  13806.289220    -42.191122  9  7  9 115       
PG11 -19977.511973   7738.253003 -15665.681556   -245.569246  7  5  7 106       
PG12 -14443.809459  11250.260634 -19489.352061   -391.682281  5  4  5 108       
PG13 -14861.690331   2276.708573  21725.571641    537.372097  4  5  6  92       
PG14 -17091.247534 -13355.690808  15449.439643     98.743072  5  7  4 100       
PG15  -9721.892984  13024.500400  20506.645802     51.171669  6  7  6  72       
PG16  25912.527319    251.766539   6511.437836   -488.885778  5  4  4  79       
PG17 -13606.766849 -21326.451536  -7483.298731    719.122699  7  4  5 107       
PG18    179.428890  19823.123897  17594.549409   -317.407223  5  5  5  99       
PG19 -15866.238365 -15726.090871 -14825.256177    333.956116  7  7  5 107       
PG20 -26390.301211   1864.304753    -56.151186    426.649490  7  6  6  87       
PG21  17122.792070 -18331.539289   7763.621163    152.885221  4  4  4  73       
PG22  16495.949976  12625.509603 -16187.645570    501.743691  6  6  4 119       
PG23   8140.765327  14613.766116  20671.966659     35.626217  9  9  9  98       
PG24 -14649.542511  21728.858789   2192.131888   -233.392582  8  6  4  83       
PG25   -544.606303  15534.969500 -21854.514116    451.438423  5  4  3 103       
PG26  25725.230486   4846.474134  -5585.912281    238.453621  7  4  6 103       
PG27  16445.029878   1736.367678  20621.362717     11.512283  5  3  4  86       
PG28  12456.965800   8750.944490 -21785.406859     83.581403  5  4  8 104       
PG29   2188.191385  24669.446402  -9520.578073   -603.563082  7  1  5  96       
PG30  -7450.305651 -15362.963545  20401.702560   -509.387571  5  5  5  72       
PG31  18875.507729  -2982.709169 -18790.768987   -218.667879  7  5  1  99       
PG32  16127.137539  18912.861077  -9456.403687   -505.694098  6  4  6 102       
*  2023  6 22 10 45  0.00000000
PG01  14249.708821 -22183.755135    -58.238979    176.879718  5     5  88       
PG02  16019.053102 -19878.380056   7543.167174   -583.406512  4  5  5  70       
PG03  12758.490740 -12747.371014 -19592.586722   -261.289461  4  7  8 102       
PG04   4109.816357 -19379.520447 -17623.586057     75.175995  5  5  5  87       
PG05 -25052.426556   5280.032038   7110.845183   -132.073892  6  2  7  78       
PG06 -11588.389257  -8893.732562 -22120.334671    583.596246  4  6  4  87       
PG07   2517.775913 -22627.567656  13728.896262    145.557340  3     5  76       
PG08  12481.084581  -8794.536677  21643.493772   -128.593954  7  3  5  93       
PG09  -5095.875968 -23905.964643 -10411.105692   -129.876083  4  2  3  87       
PG10  18360.759782  11245.959646  15934.543626    -42.192551 10  7  9  95       
PG11 -18974.347467   6116.027678 -17523.036449   -245.583082  7  6  7 112       
PG12 -16503.546854  10849.014029 -17996.402522   -391.686772  5  5  6 108       
PG13 -15627.194714   -100.358678  21325.506934    537.376494  3  5  5  86       
PG14 -15214.750206 -13358.124607  17286.956541     98.754101  4  7  4  89       
PG15 -11180.841189  11015.938963  20949.661209     51.174832  6  7  6  89       
PG16  26488.768732    549.017015   3752.991555   -488.882084  6  4  4  81       
PG17 -13691.276558 -22103.530736  -4709.873931    719.123979  6  3  5 104       
PG18  -1031.731527  21306.886792  15717.838831   -317.420532  5  5  4  80       
PG19 -16255.291479 -17204.853248 -12583.583969    333.960413  7  6  5  88       
PG20 -26249.305316   1544.792494  -2892.900067    426.647745  8  6  6  98       
PG21  16891.901787 -17322.237820  10406.422922    152.885177  4  4  4  78       
PG22  16992.000070  14369.542990 -14163.300830    501.748989  6  6  5 113       
PG23   5736.702122  14583.548019  21470.923379     35.629612  8  8  8  89       
PG24 -14751.479702  21153.932884   4976.231515   -233.404185  8  6  4  78       
PG25  -2971.008973  15390.590646 -21736.287094    451.440677  5  4  2  97       
PG26  24954.811457   5137.031202  -8218.542926    238.452767  6  5  5  99       
PG27  17423.339838   3860.533933  19550.433966     11.505561  5  3  4 100       
PG28  11140.566398  10847.096219 -21554.386326     83.581672  5  4  8  96       
PG29   1552.904297  23602.736266 -12040.019961   -603.564031  7  2  5  76       
PG30  -6070.797200 -17167.472545  19364.696413   -509.385302  5  5  5  56       
PG31  17709.894952  -1138.615554 -20057.925758   -218.668587  7  6     92       
PG32  16352.324485  19862.556216  -6821.472915   -505.701633  5  4  6  80       
*  2023  6 22 11  0  0.00000000
PG01  14318.299255 -21910.034538   2869.617893    176.877718  5  2  5  81       
PG02  15809.406500 -18922.526961  10175.561886   -583.403222  4  5  5  81       
PG03  14887.712055 -12641.503722 -18080.017583   -261.276859  4  7  8 104       
PG04   5227.519667 -17584.839769 -19152.713870     75.185347  5  4  4  95       
PG05 -25736.274969   5088.064893   4350.692364   -132.075330  7  3  7  67       
PG06 -10291.705070 -11052.312067 -21778.417147    583.594131  4  6  4  86       
PG07   3433.313399 -23704.837597  11397.313307    145.548033  3     4  88       
PG08  13802.343435  -6680.947433  21631.756669   -128.595950  7  2  6  91       
PG09  -4213.031720 -22896.963925 -12816.781388   -129.867986  4  2  3  77       
PG10  16476.755409  11361.558721  17795.443540    -42.193644 10  6  9  96       
PG11 -17952.426943   4281.424217 -19078.237972   -245.596866  8  6  7 105       
PG12 -18399.623490  10570.836777 -16199.272363   -391.691323  6  5  6  98       
PG13 -16492.316575  -2368.954917  20553.423389    537.381150  2  5  5 104       
PG14 -13149.512532 -13448.547517  18829.068301     98.765166  3  7  4  91       
PG15 -12747.585076   9055.405622  21016.200684     51.177956  6  7  6  78       
PG16  26767.499426    783.211071    931.342316   -488.878713  5  4  4  90       
PG17 -13677.722407 -22584.227997  -1854.084592    719.124811  6  3  5  86       
PG18  -2043.058309  22658.641229  13568.716462   -317.433909  5  4  4  90       
PG19 -16618.855262 -18419.786277 -10131.252885    333.965056  7  6  5 100       
PG20 -25809.240450   1166.791443  -5679.252564    426.645416  8  6  6 102       
PG21  16585.428364 -16045.981305  12865.632421    152.885083  4  5  4  90       
PG22  17474.749061  15858.361881 -11890.113134    501.754012  7  6  4 108       
PG23   3263.489717  14685.991652  21901.333490     35.633074  7  8  8  96       
PG24 -14747.948761  20299.563427   7671.744676   -233.415813  8  6  4  79       
PG25  -5371.080773  15371.490613 -21253.916757    451.442925  5  4  1  98       
PG26  23913.561599   5482.306199 -10713.026663    238.451916  6  5  5  97       
PG27  18440.661250   5803.004522  18139.659396     11.498867  4  2  4 100       
PG28   9957.680365  12967.668279 -20953.208154     83.581920  5  5  7 104       
PG29    743.390185  22324.968930 -14351.823553   -603.564773  7  2  5  81       
PG30  -4846.984264 -18921.852330  17995.269607   -509.383030  4  5  5  82       
PG31  16576.121167    870.817531 -20988.397687   -218.669089  6  6     98       
PG32  16474.452427  20534.785088  -4069.858454   -505.709085  5  4  6  95       
EOF
